start=new Date('2022-06-02T00:00:00.000Z').valueOf();
sats=[{"MEAN_MOTION_DDOT":"0.0000000000000","TLE_LINE1":"1 45191U 20012P   22152.56615598  .00001064  00000-0  90329-4 0  9990","ECCENTRICITY":"0.00018810","GP_ID":"205122300","SEMIMAJOR_AXIS":"6925.379","COUNTRY_CODE":"US","MEAN_ANOMALY":"304.4622","MEAN_ELEMENT_THEORY":"SGP4","ELEMENT_SET_NO":"999","NORAD_CAT_ID":"45191","OBJECT_TYPE":"PAYLOAD","TLE_LINE2":"2 45191  53.0547 108.7720 0001881  55.6545 304.4622 15.06389942124486","ARG_OF_PERICENTER":"55.6545","BSTAR":"0.00009032900000","PERIOD":"95.593","APOAPSIS":"548.547","CLASSIFICATION_TYPE":"U","PERIAPSIS":"545.942","SITE":"AFETR","DECAY_DATE":null,"OBJECT_NAME":"STARLINK-1236","EPOCH":"2022-06-01T13:35:15.876672","REF_FRAME":"TEME","EPHEMERIS_TYPE":"0","OBJECT_ID":"2020-012P","REV_AT_EPOCH":"12448","LAUNCH_DATE":"2020-02-17","MEAN_MOTION_DOT":"0.00001064","CENTER_NAME":"EARTH","RA_OF_ASC_NODE":"108.7720","INCLINATION":"53.0547","TIME_SYSTEM":"UTC","RCS_SIZE":"LARGE","MEAN_MOTION":"15.06389942","FILE":"3476255"},{"ELEMENT_SET_NO":"999","NORAD_CAT_ID":"45192","MEAN_ANOMALY":"298.9906","MEAN_ELEMENT_THEORY":"SGP4","COUNTRY_CODE":"US","GP_ID":"205122050","SEMIMAJOR_AXIS":"6925.373","ECCENTRICITY":"0.00020060","TLE_LINE1":"1 45192U 20012Q   22152.60669798  .00000794  00000-0  72202-4 0  9996","MEAN_MOTION_DDOT":"0.0000000000000","PERIAPSIS":"545.849","APOAPSIS":"548.627","CLASSIFICATION_TYPE":"U","PERIOD":"95.593","BSTAR":"0.00007220200000","ARG_OF_PERICENTER":"61.1284","TLE_LINE2":"2 45192  53.0557 108.5692 0002006  61.1284 298.9906 15.06391978127281","OBJECT_TYPE":"PAYLOAD","REV_AT_EPOCH":"12728","OBJECT_ID":"2020-012Q","LAUNCH_DATE":"2020-02-17","EPOCH":"2022-06-01T14:33:38.705472","EPHEMERIS_TYPE":"0","REF_FRAME":"TEME","OBJECT_NAME":"STARLINK-1237","DECAY_DATE":null,"SITE":"AFETR","MEAN_MOTION":"15.06391978","FILE":"3476255","INCLINATION":"53.0557","RCS_SIZE":"LARGE","TIME_SYSTEM":"UTC","RA_OF_ASC_NODE":"108.5692","CENTER_NAME":"EARTH","MEAN_MOTION_DOT":"0.00000794"},{"OBJECT_NAME":"STARLINK-1239","EPOCH":"2022-06-01T14:17:43.956096","EPHEMERIS_TYPE":"0","REF_FRAME":"TEME","REV_AT_EPOCH":"12722","OBJECT_ID":"2020-012R","LAUNCH_DATE":"2020-02-17","SITE":"AFETR","DECAY_DATE":null,"INCLINATION":"53.0549","RCS_SIZE":"LARGE","TIME_SYSTEM":"UTC","FILE":"3476255","MEAN_MOTION":"15.06395447","CENTER_NAME":"EARTH","MEAN_MOTION_DOT":"0.00002916","RA_OF_ASC_NODE":"108.6327","COUNTRY_CODE":"US","MEAN_ANOMALY":"308.7169","MEAN_ELEMENT_THEORY":"SGP4","ELEMENT_SET_NO":"999","NORAD_CAT_ID":"45193","TLE_LINE1":"1 45193U 20012R   22152.59564764  .00002916  00000-0  21464-3 0  9993","MEAN_MOTION_DDOT":"0.0000000000000","ECCENTRICITY":"0.00019080","GP_ID":"205123302","SEMIMAJOR_AXIS":"6925.363","BSTAR":"0.00021464000000","PERIOD":"95.592","APOAPSIS":"548.549","CLASSIFICATION_TYPE":"U","PERIAPSIS":"545.906","OBJECT_TYPE":"PAYLOAD","TLE_LINE2":"2 45193  53.0549 108.6327 0001908  51.3990 308.7169 15.06395447127224","ARG_OF_PERICENTER":"51.3990"},{"TLE_LINE2":"2 45194  53.0556 108.6275 0002402  49.9924 310.1276 15.06394410127174","ARG_OF_PERICENTER":"49.9924","OBJECT_TYPE":"PAYLOAD","APOAPSIS":"548.894","CLASSIFICATION_TYPE":"U","PERIAPSIS":"545.567","BSTAR":"0.00004462900000","PERIOD":"95.592","SEMIMAJOR_AXIS":"6925.366","GP_ID":"205123029","ECCENTRICITY":"0.00024020","TLE_LINE1":"1 45194U 20012S   22152.59932649  .00000383  00000-0  44629-4 0  9990","MEAN_MOTION_DDOT":"0.0000000000000","MEAN_ANOMALY":"310.1276","MEAN_ELEMENT_THEORY":"SGP4","ELEMENT_SET_NO":"999","NORAD_CAT_ID":"45194","COUNTRY_CODE":"US","RA_OF_ASC_NODE":"108.6275","MEAN_MOTION_DOT":"0.00000383","CENTER_NAME":"EARTH","FILE":"3476255","MEAN_MOTION":"15.06394410","INCLINATION":"53.0556","TIME_SYSTEM":"UTC","RCS_SIZE":"LARGE","DECAY_DATE":null,"SITE":"AFETR","REV_AT_EPOCH":"12717","OBJECT_ID":"2020-012S","LAUNCH_DATE":"2020-02-17","OBJECT_NAME":"STARLINK-1240","EPOCH":"2022-06-01T14:23:01.808736","EPHEMERIS_TYPE":"0","REF_FRAME":"TEME"},{"OBJECT_NAME":"STARLINK-1241","EPHEMERIS_TYPE":"0","REF_FRAME":"TEME","EPOCH":"2022-06-01T06:59:15.663264","LAUNCH_DATE":"2020-02-17","REV_AT_EPOCH":"12724","OBJECT_ID":"2020-012T","SITE":"AFETR","DECAY_DATE":null,"TIME_SYSTEM":"UTC","RCS_SIZE":"LARGE","INCLINATION":"53.0514","FILE":"3476255","MEAN_MOTION":"15.09782693","CENTER_NAME":"EARTH","MEAN_MOTION_DOT":"0.00012181","RA_OF_ASC_NODE":"108.9137","COUNTRY_CODE":"US","MEAN_ELEMENT_THEORY":"SGP4","MEAN_ANOMALY":"321.0888","NORAD_CAT_ID":"45195","ELEMENT_SET_NO":"999","ECCENTRICITY":"0.00026690","TLE_LINE1":"1 45195U 20012T   22152.29115351  .00012181  00000-0  76224-3 0  9995","MEAN_MOTION_DDOT":"0.0000000000000","GP_ID":"205121801","SEMIMAJOR_AXIS":"6915.000","BSTAR":"0.00076224000000","PERIOD":"95.378","CLASSIFICATION_TYPE":"U","APOAPSIS":"538.711","PERIAPSIS":"535.020","OBJECT_TYPE":"PAYLOAD","TLE_LINE2":"2 45195  53.0514 108.9137 0002669  39.0294 321.0888 15.09782693127249","ARG_OF_PERICENTER":"39.0294"},{"FILE":"3476255","MEAN_MOTION":"15.06393036","RCS_SIZE":"LARGE","TIME_SYSTEM":"UTC","INCLINATION":"53.0563","RA_OF_ASC_NODE":"108.7021","CENTER_NAME":"EARTH","MEAN_MOTION_DOT":"0.00000360","LAUNCH_DATE":"2020-02-17","REV_AT_EPOCH":"12732","OBJECT_ID":"2020-012U","OBJECT_NAME":"STARLINK-1244","REF_FRAME":"TEME","EPHEMERIS_TYPE":"0","EPOCH":"2022-06-01T13:56:29.742720","DECAY_DATE":null,"SITE":"AFETR","APOAPSIS":"548.746","CLASSIFICATION_TYPE":"U","PERIAPSIS":"545.724","BSTAR":"0.00004311500000","PERIOD":"95.593","TLE_LINE2":"2 45196  53.0563 108.7021 0002182  49.9458 310.1723 15.06393036127328","ARG_OF_PERICENTER":"49.9458","OBJECT_TYPE":"PAYLOAD","MEAN_ELEMENT_THEORY":"SGP4","MEAN_ANOMALY":"310.1723","NORAD_CAT_ID":"45196","ELEMENT_SET_NO":"999","COUNTRY_CODE":"US","GP_ID":"205122550","SEMIMAJOR_AXIS":"6925.370","MEAN_MOTION_DDOT":"0.0000000000000","TLE_LINE1":"1 45196U 20012U   22152.58089980  .00000360  00000-0  43115-4 0  9996","ECCENTRICITY":"0.00021820"},{"DECAY_DATE":null,"SITE":"AFETR","LAUNCH_DATE":"2020-02-17","OBJECT_ID":"2020-012V","REV_AT_EPOCH":"12728","EPHEMERIS_TYPE":"0","REF_FRAME":"TEME","EPOCH":"2022-06-01T20:02:45.523104","OBJECT_NAME":"STARLINK-1269","RA_OF_ASC_NODE":"107.5625","CENTER_NAME":"EARTH","MEAN_MOTION_DOT":"0.00009168","FILE":"3476255","MEAN_MOTION":"15.06383099","RCS_SIZE":"LARGE","TIME_SYSTEM":"UTC","INCLINATION":"53.0541","GP_ID":"205122803","SEMIMAJOR_AXIS":"6925.400","TLE_LINE1":"1 45197U 20012V   22152.83524911  .00009168  00000-0  63388-3 0  9991","MEAN_MOTION_DDOT":"0.0000000000000","ECCENTRICITY":"0.00018280","NORAD_CAT_ID":"45197","ELEMENT_SET_NO":"999","MEAN_ELEMENT_THEORY":"SGP4","MEAN_ANOMALY":"326.2481","COUNTRY_CODE":"US","ARG_OF_PERICENTER":"33.8624","TLE_LINE2":"2 45197  53.0541 107.5625 0001828  33.8624 326.2481 15.06383099127287","OBJECT_TYPE":"PAYLOAD","PERIAPSIS":"545.999","APOAPSIS":"548.531","CLASSIFICATION_TYPE":"U","PERIOD":"95.593","BSTAR":"0.00063388000000"},{"EPHEMERIS_TYPE":"0","REF_FRAME":"TEME","EPOCH":"2022-06-01T19:49:27.368544","OBJECT_NAME":"STARLINK-1154","LAUNCH_DATE":"2020-02-17","REV_AT_EPOCH":"12753","OBJECT_ID":"2020-012W","SITE":"AFETR","DECAY_DATE":null,"TIME_SYSTEM":"UTC","RCS_SIZE":"LARGE","INCLINATION":"53.0561","MEAN_MOTION":"15.06396956","FILE":"3476255","CENTER_NAME":"EARTH","MEAN_MOTION_DOT":"0.00001286","RA_OF_ASC_NODE":"87.5901","COUNTRY_CODE":"US","NORAD_CAT_ID":"45198","ELEMENT_SET_NO":"999","MEAN_ELEMENT_THEORY":"SGP4","MEAN_ANOMALY":"304.6005","MEAN_MOTION_DDOT":"0.0000000000000","TLE_LINE1":"1 45198U 20012W   22152.82601121  .00001286  00000-0  10525-3 0  9998","ECCENTRICITY":"0.00019740","SEMIMAJOR_AXIS":"6925.358","GP_ID":"205123529","PERIOD":"95.592","BSTAR":"0.00010525000000","PERIAPSIS":"545.856","APOAPSIS":"548.590","CLASSIFICATION_TYPE":"U","OBJECT_TYPE":"PAYLOAD","ARG_OF_PERICENTER":"55.5170","TLE_LINE2":"2 45198  53.0561  87.5901 0001974  55.5170 304.6005 15.06396956127539"},{"SITE":"AFETR","DECAY_DATE":null,"OBJECT_NAME":"STARLINK-1197","EPHEMERIS_TYPE":"0","REF_FRAME":"TEME","EPOCH":"2022-06-01T05:34:54.685632","LAUNCH_DATE":"2020-02-17","REV_AT_EPOCH":"12750","OBJECT_ID":"2020-012X","CENTER_NAME":"EARTH","MEAN_MOTION_DOT":"0.00000907","RA_OF_ASC_NODE":"90.2511","RCS_SIZE":"LARGE","TIME_SYSTEM":"UTC","INCLINATION":"53.0558","FILE":"3476255","MEAN_MOTION":"15.06389373","MEAN_MOTION_DDOT":"0.0000000000000","TLE_LINE1":"1 45199U 20012X   22152.23257738  .00000907  00000-0  79797-4 0  9991","ECCENTRICITY":"0.00016260","SEMIMAJOR_AXIS":"6925.381","GP_ID":"205122301","COUNTRY_CODE":"US","MEAN_ELEMENT_THEORY":"SGP4","MEAN_ANOMALY":"291.2230","NORAD_CAT_ID":"45199","ELEMENT_SET_NO":"999","OBJECT_TYPE":"PAYLOAD","TLE_LINE2":"2 45199  53.0558  90.2511 0001626  68.8933 291.2230 15.06389373127505","ARG_OF_PERICENTER":"68.8933","BSTAR":"0.00007979700000","PERIOD":"95.593","APOAPSIS":"548.372","CLASSIFICATION_TYPE":"U","PERIAPSIS":"546.120"},{"OBJECT_TYPE":"PAYLOAD","ARG_OF_PERICENTER":"56.4780","TLE_LINE2":"2 45201  53.0541  87.5422 0001625  56.4780 303.6364 15.06398599127598","PERIOD":"95.592","BSTAR":"0.00020124000000","PERIAPSIS":"546.092","CLASSIFICATION_TYPE":"U","APOAPSIS":"548.343","TLE_LINE1":"1 45201U 20012Z   22152.83707257  .00002717  00000-0  20124-3 0  9997","ECCENTRICITY":"0.00016250","MEAN_MOTION_DDOT":"0.0000000000000","SEMIMAJOR_AXIS":"6925.353","GP_ID":"205122051","COUNTRY_CODE":"US","NORAD_CAT_ID":"45201","ELEMENT_SET_NO":"999","MEAN_ELEMENT_THEORY":"SGP4","MEAN_ANOMALY":"303.6364","CENTER_NAME":"EARTH","MEAN_MOTION_DOT":"0.00002717","RA_OF_ASC_NODE":"87.5422","RCS_SIZE":"LARGE","TIME_SYSTEM":"UTC","INCLINATION":"53.0541","FILE":"3476255","MEAN_MOTION":"15.06398599","SITE":"AFETR","DECAY_DATE":null,"REF_FRAME":"TEME","EPHEMERIS_TYPE":"0","EPOCH":"2022-06-01T20:05:23.070048","OBJECT_NAME":"STARLINK-1199","LAUNCH_DATE":"2020-02-17","REV_AT_EPOCH":"12759","OBJECT_ID":"2020-012Z"}];
